[{"OBJECT_NAME":"STARLINK-30389","OBJECT_ID":"2023-134N","EPOCH":"2026-03-09T22:00:01.999584","MEAN_MOTION":15.16403467,"ECCENTRICITY":0.00019924,"INCLINATION":43.0002,"RA_OF_ASC_NODE":195.6102,"ARG_OF_PERICENTER":266.5595,"MEAN_ANOMALY":76.2223,"EPHEMERIS_TYPE":0,"CLASSIFICATION_TYPE":"U","NORAD_CAT_ID":57783,"ELEMENT_SET_NO":999,"REV_AT_EPOCH":578,"BSTAR":0.003849227,"MEAN_MOTION_DOT":0.00076742,"MEAN_MOTION_DDOT":0},{"OBJECT_NAME":"CSC-2","OBJECT_ID":"2023-155F","EPOCH":"2026-03-09T18:52:09.760512","MEAN_MOTION":15.19850023,"ECCENTRICITY":0.00046278,"INCLINATION":97.5491,"RA_OF_ASC_NODE":145.3107,"ARG_OF_PERICENTER":207.4869,"MEAN_ANOMALY":152.6121,"EPHEMERIS_TYPE":0,"CLASSIFICATION_TYPE":"U","NORAD_CAT_ID":58021,"ELEMENT_SET_NO":999,"REV_AT_EPOCH":13307,"BSTAR":0.00057636631,"MEAN_MOTION_DOT":0.00012305,"MEAN_MOTION_DDOT":0}]
